CCSDS_OMM_VERS = 2.0
CREATION_DATE  = 
ORIGINATOR     = 

OBJECT_NAME    = 2026-052F
OBJECT_ID      = 2026-052F
CENTER_NAME    = EARTH
REF_FRAME      = TEME
TIME_SYSTEM    = UTC
MEAN_ELEMENT_THEORY = SGP/SGP4

EPOCH          = 2026-03-27T06:43:28.214688
MEAN_MOTION    = 15.10649916
ECCENTRICITY   = .00100133
INCLINATION    = 97.5365
RA_OF_ASC_NODE = 162.3687
ARG_OF_PERICENTER = 220.0978
MEAN_ANOMALY   = 139.9513

EPHEMERIS_TYPE = 0
CLASSIFICATION_TYPE = U
NORAD_CAT_ID   = 68203
ELEMENT_SET_NO = 999
REV_AT_EPOCH   = 168
BSTAR          = .41574958E-3
MEAN_MOTION_DOT = .6822E-4
MEAN_MOTION_DDOT = 0

CCSDS_OMM_VERS = 2.0
CREATION_DATE  = 
ORIGINATOR     = 

OBJECT_NAME    = 2026-052G
OBJECT_ID      = 2026-052G
CENTER_NAME    = EARTH
REF_FRAME      = TEME
TIME_SYSTEM    = UTC
MEAN_ELEMENT_THEORY = SGP/SGP4

EPOCH          = 2026-03-27T06:42:57.229920
MEAN_MOTION    = 15.10697940
ECCENTRICITY   = .000955
INCLINATION    = 97.5376
RA_OF_ASC_NODE = 162.3627
ARG_OF_PERICENTER = 223.1748
MEAN_ANOMALY   = 136.8734

EPHEMERIS_TYPE = 0
CLASSIFICATION_TYPE = U
NORAD_CAT_ID   = 68204
ELEMENT_SET_NO = 999
REV_AT_EPOCH   = 168
BSTAR          = .44091566E-3
MEAN_MOTION_DOT = .7248E-4
MEAN_MOTION_DDOT = 0

CCSDS_OMM_VERS = 2.0
CREATION_DATE  = 
ORIGINATOR     = 

OBJECT_NAME    = KZ-11 R/B
OBJECT_ID      = 2026-052H
CENTER_NAME    = EARTH
REF_FRAME      = TEME
TIME_SYSTEM    = UTC
MEAN_ELEMENT_THEORY = SGP/SGP4

EPOCH          = 2026-03-27T08:03:50.969376
MEAN_MOTION    = 14.67144277
ECCENTRICITY   = .05465768
INCLINATION    = 97.3416
RA_OF_ASC_NODE = 161.8141
ARG_OF_PERICENTER = 336.8364
MEAN_ANOMALY   = 20.9024

EPHEMERIS_TYPE = 0
CLASSIFICATION_TYPE = U
NORAD_CAT_ID   = 68205
ELEMENT_SET_NO = 999
REV_AT_EPOCH   = 164
BSTAR          = .44902107E-3
MEAN_MOTION_DOT = .30054E-3
MEAN_MOTION_DDOT = .1928602E-5

CCSDS_OMM_VERS = 2.0
CREATION_DATE  = 
ORIGINATOR     = 

OBJECT_NAME    = 2026-052J
OBJECT_ID      = 2026-052J
CENTER_NAME    = EARTH
REF_FRAME      = TEME
TIME_SYSTEM    = UTC
MEAN_ELEMENT_THEORY = SGP/SGP4

EPOCH          = 2026-03-27T06:22:05.301696
MEAN_MOTION    = 14.67816608
ECCENTRICITY   = .05443078
INCLINATION    = 97.3418
RA_OF_ASC_NODE = 161.7550
ARG_OF_PERICENTER = 337.1156
MEAN_ANOMALY   = 20.6598

EPHEMERIS_TYPE = 0
CLASSIFICATION_TYPE = U
NORAD_CAT_ID   = 68206
ELEMENT_SET_NO = 999
REV_AT_EPOCH   = 163
BSTAR          = .76376485E-3
MEAN_MOTION_DOT = .52032E-3
MEAN_MOTION_DDOT = .2209489E-5

CCSDS_OMM_VERS = 2.0
CREATION_DATE  = 
ORIGINATOR     = 

OBJECT_NAME    = STARLINK-36986
OBJECT_ID      = 2026-053A
CENTER_NAME    = EARTH
REF_FRAME      = TEME
TIME_SYSTEM    = UTC
MEAN_ELEMENT_THEORY = SGP/SGP4

EPOCH          = 2026-03-27T06:00:02.999808
MEAN_MOTION    = 15.81479973
ECCENTRICITY   = .00015307
INCLINATION    = 97.2824
RA_OF_ASC_NODE = 321.3417
ARG_OF_PERICENTER = 101.4856
MEAN_ANOMALY   = 156.1806

EPHEMERIS_TYPE = 0
CLASSIFICATION_TYPE = U
NORAD_CAT_ID   = 68207
ELEMENT_SET_NO = 999
REV_AT_EPOCH   = 283
BSTAR          = -.53009734E-2
MEAN_MOTION_DOT = -.940825E-2
MEAN_MOTION_DDOT = 0

CCSDS_OMM_VERS = 2.0
CREATION_DATE  = 
ORIGINATOR     = 

OBJECT_NAME    = STARLINK-37009
OBJECT_ID      = 2026-053B
CENTER_NAME    = EARTH
REF_FRAME      = TEME
TIME_SYSTEM    = UTC
MEAN_ELEMENT_THEORY = SGP/SGP4

EPOCH          = 2026-03-27T06:00:02.999808
MEAN_MOTION    = 15.81860951
ECCENTRICITY   = .00023116
INCLINATION    = 97.2813
RA_OF_ASC_NODE = 321.3437
ARG_OF_PERICENTER = 97.5608
MEAN_ANOMALY   = 164.1403

EPHEMERIS_TYPE = 0
CLASSIFICATION_TYPE = U
NORAD_CAT_ID   = 68208
ELEMENT_SET_NO = 999
REV_AT_EPOCH   = 283
BSTAR          = -.80214239E-2
MEAN_MOTION_DOT = -.1433496E-1
MEAN_MOTION_DDOT = 0

CCSDS_OMM_VERS = 2.0
CREATION_DATE  = 
ORIGINATOR     = 

OBJECT_NAME    = STARLINK-36948
OBJECT_ID      = 2026-053C
CENTER_NAME    = EARTH
REF_FRAME      = TEME
TIME_SYSTEM    = UTC
MEAN_ELEMENT_THEORY = SGP/SGP4

EPOCH          = 2026-03-27T06:00:02.999808
MEAN_MOTION    = 15.82109166
ECCENTRICITY   = .00016904
INCLINATION    = 97.2813
RA_OF_ASC_NODE = 321.3449
ARG_OF_PERICENTER = 102.2642
MEAN_ANOMALY   = 163.4800

EPHEMERIS_TYPE = 0
CLASSIFICATION_TYPE = U
NORAD_CAT_ID   = 68209
ELEMENT_SET_NO = 999
REV_AT_EPOCH   = 272
BSTAR          = -.88035425E-2
MEAN_MOTION_DOT = -.1571807E-1
MEAN_MOTION_DDOT = 0

CCSDS_OMM_VERS = 2.0
CREATION_DATE  = 
ORIGINATOR     = 

OBJECT_NAME    = STARLINK-37119
OBJECT_ID      = 2026-053D
CENTER_NAME    = EARTH
REF_FRAME      = TEME
TIME_SYSTEM    = UTC
MEAN_ELEMENT_THEORY = SGP/SGP4

EPOCH          = 2026-03-27T06:00:02.999808
MEAN_MOTION    = 15.82357469
ECCENTRICITY   = .00018667
INCLINATION    = 97.2811
RA_OF_ASC_NODE = 321.3464
ARG_OF_PERICENTER = 96.2358
MEAN_ANOMALY   = 173.5498

EPHEMERIS_TYPE = 0
CLASSIFICATION_TYPE = U
NORAD_CAT_ID   = 68210
ELEMENT_SET_NO = 999
REV_AT_EPOCH   = 283
BSTAR          = -.9816174E-2
MEAN_MOTION_DOT = -.1745357E-1
MEAN_MOTION_DDOT = 0

CCSDS_OMM_VERS = 2.0
CREATION_DATE  = 
ORIGINATOR     = 

OBJECT_NAME    = STARLINK-37120
OBJECT_ID      = 2026-053E
CENTER_NAME    = EARTH
REF_FRAME      = TEME
TIME_SYSTEM    = UTC
MEAN_ELEMENT_THEORY = SGP/SGP4

EPOCH          = 2026-03-27T06:00:02.999808
MEAN_MOTION    = 15.82655981
ECCENTRICITY   = .00018179
INCLINATION    = 97.2805
RA_OF_ASC_NODE = 321.3490
ARG_OF_PERICENTER = 94.5881
MEAN_ANOMALY   = 179.2391

EPHEMERIS_TYPE = 0
CLASSIFICATION_TYPE = U
NORAD_CAT_ID   = 68211
ELEMENT_SET_NO = 999
REV_AT_EPOCH   = 281
BSTAR          = -.11488213E-1
MEAN_MOTION_DOT = -.2068954E-1
MEAN_MOTION_DDOT = 0

CCSDS_OMM_VERS = 2.0
CREATION_DATE  = 
ORIGINATOR     = 

OBJECT_NAME    = STARLINK-37117
OBJECT_ID      = 2026-053F
CENTER_NAME    = EARTH
REF_FRAME      = TEME
TIME_SYSTEM    = UTC
MEAN_ELEMENT_THEORY = SGP/SGP4

EPOCH          = 2026-03-27T06:00:02.999808
MEAN_MOTION    = 15.82745735
ECCENTRICITY   = .00017134
INCLINATION    = 97.2811
RA_OF_ASC_NODE = 321.3501
ARG_OF_PERICENTER = 105.8242
MEAN_ANOMALY   = 172.0650

EPHEMERIS_TYPE = 0
CLASSIFICATION_TYPE = U
NORAD_CAT_ID   = 68212
ELEMENT_SET_NO = 999
REV_AT_EPOCH   = 283
BSTAR          = -.10981231E-1
MEAN_MOTION_DOT = -.1997259E-1
MEAN_MOTION_DDOT = 0

CCSDS_OMM_VERS = 2.0
CREATION_DATE  = 
ORIGINATOR     = 

OBJECT_NAME    = STARLINK-37116
OBJECT_ID      = 2026-053G
CENTER_NAME    = EARTH
REF_FRAME      = TEME
TIME_SYSTEM    = UTC
MEAN_ELEMENT_THEORY = SGP/SGP4

EPOCH          = 2026-03-27T06:00:02.999808
MEAN_MOTION    = 15.82940037
ECCENTRICITY   = .00018912
INCLINATION    = 97.2807
RA_OF_ASC_NODE = 321.3524
ARG_OF_PERICENTER = 102.2206
MEAN_ANOMALY   = 179.6076

EPHEMERIS_TYPE = 0
CLASSIFICATION_TYPE = U
NORAD_CAT_ID   = 68213
ELEMENT_SET_NO = 999
REV_AT_EPOCH   = 283
BSTAR          = -.10547868E-1
MEAN_MOTION_DOT = -.1944374E-1
MEAN_MOTION_DDOT = 0

CCSDS_OMM_VERS = 2.0
CREATION_DATE  = 
ORIGINATOR     = 

OBJECT_NAME    = STARLINK-35854
OBJECT_ID      = 2026-053H
CENTER_NAME    = EARTH
REF_FRAME      = TEME
TIME_SYSTEM    = UTC
MEAN_ELEMENT_THEORY = SGP/SGP4

EPOCH          = 2026-03-27T06:00:02.999808
MEAN_MOTION    = 15.83149812
ECCENTRICITY   = .00013948
INCLINATION    = 97.2799
RA_OF_ASC_NODE = 321.3525
ARG_OF_PERICENTER = 105.3480
MEAN_ANOMALY   = 180.4857

EPHEMERIS_TYPE = 0
CLASSIFICATION_TYPE = U
NORAD_CAT_ID   = 68214
ELEMENT_SET_NO = 999
REV_AT_EPOCH   = 259
BSTAR          = -.11550635E-1
MEAN_MOTION_DOT = -.2120026E-1
MEAN_MOTION_DDOT = 0

