2026-052F               
1 68203U 26052F   26086.28018767  .00006822  00000+0  41575-3 0  9997
2 68203  97.5365 162.3687 0010013 220.0978 139.9513 15.10649916  1680
2026-052G               
1 68204U 26052G   26086.27982905  .00007248  00000+0  44092-3 0  9991
2 68204  97.5376 162.3627 0009550 223.1748 136.8734 15.10697940  1681
KZ-11 R/B               
1 68205U 26052H   26086.33600659  .00030054  19286-5  44902-3 0  9995
2 68205  97.3416 161.8141 0546576 336.8364  20.9024 14.67144277  1642
2026-052J               
1 68206U 26052J   26086.26533914  .00052032  22095-5  76376-3 0  9999
2 68206  97.3418 161.7550 0544307 337.1156  20.6598 14.67816608  1637
STARLINK-36986          
1 68207U 26053A   26086.25003472 -.00940825  00000+0 -53010-2 0  9994
2 68207  97.2824 321.3417 0001530 101.4856 156.1806 15.81479973  2836
STARLINK-37009          
1 68208U 26053B   26086.25003472 -.01433496  00000+0 -80214-2 0  9993
2 68208  97.2813 321.3437 0002311  97.5608 164.1403 15.81860951  2837
STARLINK-36948          
1 68209U 26053C   26086.25003472 -.01571807  00000+0 -88035-2 0  9992
2 68209  97.2813 321.3449 0001690 102.2642 163.4800 15.82109166  2728
STARLINK-37119          
1 68210U 26053D   26086.25003472 -.01745357  00000+0 -98162-2 0  9999
2 68210  97.2811 321.3464 0001866  96.2358 173.5498 15.82357469  2834
STARLINK-37120          
1 68211U 26053E   26086.25003472 -.02068954  00000+0 -11488-1 0  9997
2 68211  97.2805 321.3490 0001817  94.5881 179.2391 15.82655981  2818
STARLINK-37117          
1 68212U 26053F   26086.25003472 -.01997259  00000+0 -10981-1 0  9993
2 68212  97.2811 321.3501 0001713 105.8242 172.0650 15.82745735  2839
STARLINK-37116          
1 68213U 26053G   26086.25003472 -.01944374  00000+0 -10548-1 0  9993
2 68213  97.2807 321.3524 0001891 102.2206 179.6076 15.82940037  2835
STARLINK-35854          
1 68214U 26053H   26086.25003472 -.02120026  00000+0 -11551-1 0  9990
2 68214  97.2799 321.3525 0001394 105.3480 180.4857 15.83149812  2596
